GOES 18                 
1 51850U 22021A   26061.77267117  .00000080  00000+0  00000+0 0  9995
2 51850   0.0258  75.1977 0000548 314.4181 272.0750  1.00271247  5520
GOES 19                 
1 60133U 24119A   26061.50188560 -.00000265  00000+0  00000+0 0  9990
2 60133   0.0013 214.6235 0000922 158.0579 253.0696  1.00272345  5897
